{
    "links": {
        "self": "http://www.neowsapp.com/rest/v1/neo/3836921?api_key=iIulBulltgU6a56xZRHN4H3l9WmuAYTsLGpBGhQ2"
    },
    "id": "3836921",
    "neo_reference_id": "3836921",
    "name": "(2018 XH5)",
    "designation": "2018 XH5",
    "nasa_jpl_url": "http://ssd.jpl.nasa.gov/sbdb.cgi?sstr=3836921",
    "absolute_magnitude_h": 25.1,
    "estimated_diameter": {
        "kilometers": {
            "estimated_diameter_min": 0.0253837029,
            "estimated_diameter_max": 0.0567596853
        },
        "meters": {
            "estimated_diameter_min": 25.3837029364,
            "estimated_diameter_max": 56.7596852866
        },
        "miles": {
            "estimated_diameter_min": 0.0157726969,
            "estimated_diameter_max": 0.0352688224
        },
        "feet": {
            "estimated_diameter_min": 83.279867942,
            "estimated_diameter_max": 186.2194458756
        }
    },
    "is_potentially_hazardous_asteroid": false,
    "close_approach_data": [
        {
            "close_approach_date": "1998-11-29",
            "close_approach_date_full": "1998-Nov-29 12:32",
            "epoch_date_close_approach": 912342720000,
            "relative_velocity": {
                "kilometers_per_second": "5.8988217333",
                "kilometers_per_hour": "21235.7582398758",
                "miles_per_hour": "13195.0743352161"
            },
            "miss_distance": {
                "astronomical": "0.1103995404",
                "lunar": "42.9454212156",
                "kilometers": "16515536.092818948",
                "miles": "10262278.2599115624"
            },
            "orbiting_body": "Earth"
        },
        {
            "close_approach_date": "2016-02-20",
            "close_approach_date_full": "2016-Feb-20 20:59",
            "epoch_date_close_approach": 1456001940000,
            "relative_velocity": {
                "kilometers_per_second": "4.3052538084",
                "kilometers_per_hour": "15498.9137101216",
                "miles_per_hour": "9630.4222439364"
            },
            "miss_distance": {
                "astronomical": "0.4125993683",
                "lunar": "160.5011542687",
                "kilometers": "61723986.661025521",
                "miles": "38353506.8354173498"
            },
            "orbiting_body": "Earth"
        },
        {
            "close_approach_date": "2018-11-28",
            "close_approach_date_full": "2018-Nov-28 07:25",
            "epoch_date_close_approach": 1543389900000,
            "relative_velocity": {
                "kilometers_per_second": "5.9080127914",
                "kilometers_per_hour": "21268.8460489134",
                "miles_per_hour": "13215.633813004"
            },
            "miss_distance": {
                "astronomical": "0.1009410731",
                "lunar": "39.2660774359",
                "kilometers": "15100569.531274297",
                "miles": "9383058.8085154186"
            },
            "orbiting_body": "Earth"
        },
        {
            "close_approach_date": "2021-08-19",
            "close_approach_date_full": "2021-Aug-19 03:08",
            "epoch_date_close_approach": 1629342480000,
            "relative_velocity": {
                "kilometers_per_second": "4.3951983152",
                "kilometers_per_hour": "15822.7139348379",
                "miles_per_hour": "9831.6191113441"
            },
            "miss_distance": {
                "astronomical": "0.4024618537",
                "lunar": "156.5576610893",
                "kilometers": "60207436.069771619",
                "miles": "37411165.9949375822"
            },
            "orbiting_body": "Earth"
        },
        {
            "close_approach_date": "2038-11-26",
            "close_approach_date_full": "2038-Nov-26 15:48",
            "epoch_date_close_approach": 2174399280000,
            "relative_velocity": {
                "kilometers_per_second": "6.0636945613",
                "kilometers_per_hour": "21829.3004205575",
                "miles_per_hour": "13563.8783640959"
            },
            "miss_distance": {
                "astronomical": "0.1099183934",
                "lunar": "42.7582550326",
                "kilometers": "16443557.526462058",
                "miles": "10217552.8527220804"
            },
            "orbiting_body": "Earth"
        }
    ],
    "orbital_data": {
        "orbit_id": "4",
        "orbit_determination_date": "2019-07-27 14:01:31",
        "first_observation_date": "2018-12-13",
        "last_observation_date": "2018-12-30",
        "data_arc_in_days": 17,
        "observations_used": 18,
        "orbit_uncertainty": "7",
        "minimum_orbit_intersection": ".101359",
        "jupiter_tisserand_invariant": "4.881",
        "epoch_osculation": "2459000.5",
        "eccentricity": ".1845969671326948",
        "semi_major_axis": "1.332817092922763",
        "inclination": "10.91370065373558",
        "ascending_node_longitude": "248.4008437594102",
        "orbital_period": "562.0232183306657",
        "perihelion_distance": "1.086783099826606",
        "perihelion_argument": "173.8352601182773",
        "aphelion_distance": "1.57885108601892",
        "perihelion_time": "2459008.828529267989",
        "mean_anomaly": "354.6652194452365",
        "mean_motion": ".6405429317836375",
        "equinox": "J2000",
        "orbit_class": {
            "orbit_class_type": "AMO",
            "orbit_class_description": "Near-Earth asteroid orbits similar to that of 1221 Amor",
            "orbit_class_range": "1.017 AU < q (perihelion) < 1.3 AU"
        }
    },
    "is_sentry_object": false
}